[{"OBJECT_NAME":"STARLINK-33956","OBJECT_ID":"2025-098B","EPOCH":"2026-03-09T20:56:17.811168","MEAN_MOTION":14.9808157,"ECCENTRICITY":0.00013171,"INCLINATION":70.002,"RA_OF_ASC_NODE":273.8381,"ARG_OF_PERICENTER":251.6573,"MEAN_ANOMALY":108.4443,"EPHEMERIS_TYPE":0,"CLASSIFICATION_TYPE":"U","NORAD_CAT_ID":63927,"ELEMENT_SET_NO":999,"REV_AT_EPOCH":4660,"BSTAR":-0.0029688164,"MEAN_MOTION_DOT":-0.0003511,"MEAN_MOTION_DDOT":0},{"OBJECT_NAME":"COSMOS 374 DEB","OBJECT_ID":"1970-089H","EPOCH":"2026-03-09T12:27:41.883264","MEAN_MOTION":13.59474503,"ECCENTRICITY":0.06426222,"INCLINATION":62.9221,"RA_OF_ASC_NODE":68.1933,"ARG_OF_PERICENTER":199.9559,"MEAN_ANOMALY":157.5262,"EPHEMERIS_TYPE":0,"CLASSIFICATION_TYPE":"U","NORAD_CAT_ID":4621,"ELEMENT_SET_NO":999,"REV_AT_EPOCH":66798,"BSTAR":0.00036640968,"MEAN_MOTION_DOT":9.73e-6,"MEAN_MOTION_DDOT":0}]
